ONEWEB-0289             
1 49079U 21075E   24001.55420611  .00000046  00000+0  85920-4 0  9992
2 49079  87.9209 184.3612 0001435  96.9574 263.1721 13.17649740115993
ONEWEB-0290             
1 49080U 21075F   24001.53678301  .00000076  00000+0  16152-3 0  9996
2 49080  87.9187 184.3281 0002026  88.7378 271.3986 13.17649512115407
ONEWEB-0291             
1 49081U 21075G   24001.52097942  .00000512  00000+0  12859-2 0  9996
2 49081  87.9195 184.3606 0001676  79.0542 281.0778 13.17650663115398
ONEWEB-0293             
1 49082U 21075H   24001.54627567 -.00000011  00000+0 -62264-4 0  9994
2 49082  87.9209 184.3614 0001729  87.7026 272.4304 13.17648875115421
ONEWEB-0294             
1 49083U 21075J   24001.48279507 -.00000284  00000+0 -82425-3 0  9997
2 49083  87.9000 169.2527 0002176  85.0909 275.0467 13.12440837116821
ONEWEB-0295             
1 49084U 21075K   24001.54788070  .00000043  00000+0  78404-4 0  9999
2 49084  87.9216 184.3357 0001705  74.6198 285.5122 13.17649697115385
ONEWEB-0296             
1 49085U 21075L   24001.46533708  .00000170  00000+0  43656-3 0  9998
2 49085  87.9005 169.2543 0001911  70.5144 289.6191 13.12440329116823
ONEWEB-0297             
1 49086U 21075M   24001.49709189 -.00000243  00000+0 -71153-3 0  9996
2 49086  87.9011 169.2423 0001386  96.7032 263.4255 13.12440018117434
